{
    "links": {
        "self": "http://www.neowsapp.com/rest/v1/neo/54005585?api_key=iIulBulltgU6a56xZRHN4H3l9WmuAYTsLGpBGhQ2"
    },
    "id": "54005585",
    "neo_reference_id": "54005585",
    "name": "(2020 DJ3)",
    "designation": "2020 DJ3",
    "nasa_jpl_url": "http://ssd.jpl.nasa.gov/sbdb.cgi?sstr=54005585",
    "absolute_magnitude_h": 24.398,
    "estimated_diameter": {
        "kilometers": {
            "estimated_diameter_min": 0.0350715513,
            "estimated_diameter_max": 0.0784223729
        },
        "meters": {
            "estimated_diameter_min": 35.0715513322,
            "estimated_diameter_max": 78.4223728553
        },
        "miles": {
            "estimated_diameter_min": 0.0217924449,
            "estimated_diameter_max": 0.0487293882
        },
        "feet": {
            "estimated_diameter_min": 115.0641484729,
            "estimated_diameter_max": 257.2912577585
        }
    },
    "is_potentially_hazardous_asteroid": false,
    "close_approach_data": [
        {
            "close_approach_date": "2020-02-24",
            "close_approach_date_full": "2020-Feb-24 10:39",
            "epoch_date_close_approach": 1582540740000,
            "relative_velocity": {
                "kilometers_per_second": "18.4117772587",
                "kilometers_per_hour": "66282.398131356",
                "miles_per_hour": "41185.3045500084"
            },
            "miss_distance": {
                "astronomical": "0.1062465757",
                "lunar": "41.3299179473",
                "kilometers": "15894261.419513759",
                "miles": "9876236.0789335142"
            },
            "orbiting_body": "Earth"
        }
    ],
    "orbital_data": {
        "orbit_id": "4",
        "orbit_determination_date": "2020-03-12 06:06:52",
        "first_observation_date": "2020-02-25",
        "last_observation_date": "2020-03-03",
        "data_arc_in_days": 7,
        "observations_used": 40,
        "orbit_uncertainty": "9",
        "minimum_orbit_intersection": ".0981238",
        "jupiter_tisserand_invariant": "4.223",
        "epoch_osculation": "2458906.5",
        "eccentricity": ".3044767980010076",
        "semi_major_axis": "1.548788338141347",
        "inclination": "33.86218459101637",
        "ascending_node_longitude": "332.6930723749886",
        "orbital_period": "704.0224880457292",
        "perihelion_distance": "1.077218224162768",
        "perihelion_argument": "196.883150404886",
        "aphelion_distance": "2.020358452119926",
        "perihelion_time": "2458920.693599125926",
        "mean_anomaly": "352.7421413774478",
        "mean_motion": ".5113473022705725",
        "equinox": "J2000",
        "orbit_class": {
            "orbit_class_type": "AMO",
            "orbit_class_description": "Near-Earth asteroid orbits similar to that of 1221 Amor",
            "orbit_class_range": "1.017 AU < q (perihelion) < 1.3 AU"
        }
    },
    "is_sentry_object": false
}